{
  "updated": "2026-07-13T10:20:14.249Z",
  "capsules": {
    "66664": {
      "name": "SOYUZ-MS 28",
      "kind": "crew",
      "family": "soyuz",
      "phase": "docked",
      "stationKey": "iss",
      "since": "2026-07-03T10:34:14.509Z",
      "distanceKm": 0,
      "altitudeKm": 427.3,
      "inclinationDeg": 51.63,
      "l1": "1 66664U 25275A   26193.79871965  .00004831  00000+0  95802-4 0  9995",
      "l2": "2 66664  51.6301 173.3406 0006695 288.1916  71.8344 15.48994114646314"
    },
    "67796": {
      "name": "CREW DRAGON 12",
      "kind": "crew",
      "family": "dragon",
      "phase": "docked",
      "stationKey": "iss",
      "since": "2026-07-03T10:34:14.509Z",
      "distanceKm": 0,
      "altitudeKm": 427.3,
      "inclinationDeg": 51.63,
      "l1": "1 67796U 26031A   26193.79871965  .00004831  00000+0  95802-4 0  9993",
      "l2": "2 67796  51.6301 173.3406 0006695 288.1916  71.8344 15.48994114628580"
    },
    "68319": {
      "name": "PROGRESS-MS 33",
      "kind": "cargo",
      "family": "progress",
      "phase": "docked",
      "stationKey": "iss",
      "since": "2026-07-10T20:18:26.588Z",
      "distanceKm": 0,
      "altitudeKm": 427.3,
      "inclinationDeg": 51.63,
      "l1": "1 68319U 26058A   26193.79871965  .00004831  00000+0  95802-4 0  9994",
      "l2": "2 68319  51.6301 173.3406 0006695 288.1916  71.8344 15.48994114664043"
    },
    "68689": {
      "name": "CYGNUS NG-24",
      "kind": "cargo",
      "family": "cygnus",
      "phase": "docked",
      "stationKey": "iss",
      "since": "2026-07-10T20:18:26.588Z",
      "distanceKm": 0.1,
      "altitudeKm": 427.3,
      "inclinationDeg": 51.63,
      "l1": "1 68689U 26079A   26193.41162669  .00004782  00000+0  94926-4 0  9991",
      "l2": "2 68689  51.6301 175.2558 0006698 286.7033  73.3220 15.48989885681711"
    },
    "68837": {
      "name": "PROGRESS-MS 34",
      "kind": "cargo",
      "family": "progress",
      "phase": "docked",
      "stationKey": "iss",
      "since": "2026-07-10T20:18:26.588Z",
      "distanceKm": 0.1,
      "altitudeKm": 427.3,
      "inclinationDeg": 51.63,
      "l1": "1 68837U 26093A   26193.41162669  .00004782  00000+0  94926-4 0  9992",
      "l2": "2 68837  51.6301 175.2558 0006698 286.7033  73.3220 15.48989885699445"
    },
    "69049": {
      "name": "TIANZHOU-10",
      "kind": "cargo",
      "family": "tianzhou",
      "phase": "docked",
      "stationKey": "css",
      "since": "2026-07-10T20:18:26.588Z",
      "distanceKm": 0,
      "altitudeKm": 402.7,
      "inclinationDeg": 41.469,
      "l1": "1 69049U 26102A   26193.33050829  .00000806  00000+0  14701-4 0  9990",
      "l2": "2 69049  41.4686 169.1964 0002428 290.9815  69.0763 15.58035041296421"
    },
    "69180": {
      "name": "SHENZHOU-23 (SZ-23)",
      "kind": "crew",
      "family": "shenzhou",
      "phase": "docked",
      "stationKey": "css",
      "since": "2026-07-03T10:34:14.509Z",
      "distanceKm": 0,
      "altitudeKm": 402.7,
      "inclinationDeg": 41.469,
      "l1": "1 69180U 26113A   26193.33050829  .00000806  00000+0  14701-4 0  9998",
      "l2": "2 69180  41.4686 169.1964 0002428 290.9815  69.0763 15.58035041296056"
    }
  },
  "events": [
    {
      "id": "68319",
      "name": "PROGRESS-MS 33",
      "kind": "cargo",
      "family": "progress",
      "stationKey": "iss",
      "event": "launched",
      "at": "2026-07-10T20:18:26.588Z"
    },
    {
      "id": "68689",
      "name": "CYGNUS NG-24",
      "kind": "cargo",
      "family": "cygnus",
      "stationKey": "iss",
      "event": "launched",
      "at": "2026-07-10T20:18:26.588Z"
    },
    {
      "id": "68837",
      "name": "PROGRESS-MS 34",
      "kind": "cargo",
      "family": "progress",
      "stationKey": "iss",
      "event": "launched",
      "at": "2026-07-10T20:18:26.588Z"
    },
    {
      "id": "69049",
      "name": "TIANZHOU-10",
      "kind": "cargo",
      "family": "tianzhou",
      "stationKey": "css",
      "event": "launched",
      "at": "2026-07-10T20:18:26.588Z"
    }
  ]
}
